NORAD_CAT_ID,OBJECT_NAME,OBJECT_TYPE,EPOCH,MEAN_MOTION,ECCENTRICITY,INCLINATION,RA_OF_ASC_NODE,ARG_OF_PERICENTER,MEAN_ANOMALY,BSTAR,MEAN_MOTION_DOT,MEAN_MOTION_DDOT,TLE_LINE0,TLE_LINE1,TLE_LINE2,SEMIMAJOR_AXIS,PERIOD,APOGEE,PERIGEE,DECAYED
50821.0,STARLINK-3346,PAYLOAD,2022-02-04 10:32:33,15.73252579,0.0002063,53.215,57.7838,30.6499,329.4641,0.00018909,0.0002606,0.0,0 STARLINK-3346,1 50821U 22001U   22035.43928010  .00026060  00000-0  18909-3 0  9994,2 50821  53.2150  57.7838 0002063  30.6499 329.4641 15.73252579  5778,6727.745,91.53,350.99800000000016,348.222,0.0
50821.0,STARLINK-3346,PAYLOAD,2022-02-05 06:00:00,15.73237157,0.0001977,53.2141,53.7725,28.9069,245.4755,-0.00058414,-0.00081944,0.0,0 STARLINK-3346,1 50821U 22001U   22036.25001157 -.00081944  00000-0 -58414-3 0  9998,2 50821  53.2141  53.7725 0001977  28.9069 245.4755 15.73237157  5908,6727.7890000000025,91.531,350.9840000000001,348.324,0.0
50821.0,STARLINK-3346,PAYLOAD,2022-02-05 12:27:43,15.73203291,0.0002195,53.2141,52.4384,27.8852,332.2286,0.00011367,0.00015364,0.0,0 STARLINK-3346,1 50821U 22001U   22036.51925171  .00015364  00000-0  11367-3 0  9995,2 50821  53.2141  52.4384 0002195  27.8852 332.2286 15.73203291  4709,6727.886,91.533,351.228,348.274,0.0
50821.0,STARLINK-3346,PAYLOAD,2022-02-05 14:00:01,15.73196254,0.0002121,53.2142,52.1235,23.6804,339.6338,0.00015607,0.00021336,0.0,0 STARLINK-3346,1 50821U 22001U   22036.58334491  .00021336  00000-0  15607-3 0  9998,2 50821  53.2142  52.1235 0002121  23.6804 339.6338 15.73196254  5960,6727.906,91.533,351.1980000000001,348.344,0.0
50821.0,STARLINK-3346,PAYLOAD,2022-02-05 22:00:01,15.73149209,0.0001926,53.2145,50.4718,30.9031,61.409,0.00049246,0.00068914,0.0,0 STARLINK-3346,1 50821U 22001U   22036.91668981  .00068914  00000-0  49246-3 0  9998,2 50821  53.2145  50.4718 0001926  30.9031  61.4090 15.73149209  6015,6728.04,91.536,351.201,348.6090000000001,0.0
50821.0,STARLINK-3346,PAYLOAD,2022-02-06 06:00:00,15.73213215,0.0002063,53.2145,48.8238,26.5407,154.5857,-0.001204,-0.0016640999999999,0.0,0 STARLINK-3346,1 50821U 22001U   22037.25001157 -.00166410  00000-0 -12040-2 0  9995,2 50821  53.2145  48.8238 0002063  26.5407 154.5857 15.73213215  6063,6727.857,91.532,351.11,348.335,0.0
50821.0,STARLINK-3346,PAYLOAD,2022-02-06 14:00:01,15.73076185,0.0002058,53.214,47.1746,20.4299,249.6281,0.00026915,0.00037122,0.0,0 STARLINK-3346,1 50821U 22001U   22037.58335648  .00037122  00000-0  26915-3 0  9998,2 50821  53.2140  47.1746 0002058  20.4299 249.6281 15.73076185  6116,6728.248000000001,91.54,351.49800000000016,348.72900000000016,0.0
50821.0,STARLINK-3346,PAYLOAD,2022-02-06 22:00:00,15.730723199999998,0.0001862,53.2142,45.5236,27.5657,331.22,0.0013289,0.00189106,0.0,0 STARLINK-3346,1 50821U 22001U   22037.91667824  .00189106  00000-0  13289-2 0  9998,2 50821  53.2142  45.5236 0001862  27.5657 331.2200 15.73072320  3698,6728.259,91.541,351.37699999999984,348.871,0.0
50821.0,STARLINK-3346,PAYLOAD,2022-02-07 05:37:45,15.73173064,0.0001556,53.2149,43.9495,72.0758,288.0432,8.2676e-05,0.00010985,0.0,0 STARLINK-3346,1 50821U 22001U   22038.23455352  .00010985  00000-0  82676-4 0  9991,2 50821  53.2149  43.9495 0001556  72.0758 288.0432 15.73173064  6226,6727.972,91.535,350.884,348.79,0.0
50821.0,STARLINK-3346,PAYLOAD,2022-02-07 14:00:01,15.73245991,0.000213,53.2146,42.2265,28.0122,148.5737,0.00021158,0.00029236,0.0,0 STARLINK-3346,1 50821U 22001U   22038.58334491  .00029236  00000-0  21158-3 0  9995,2 50821  53.2146  42.2265 0002130  28.0122 148.5737 15.73245991  3689,6727.764,91.531,351.06199999999984,348.196,0.0
50821.0,STARLINK-3346,PAYLOAD,2022-02-07 16:00:00,15.732624599999998,0.0002061,53.2148,41.8134,28.6494,260.1792,6.696e-05,8.811e-05,0.0,0 STARLINK-3346,1 50821U 22001U   22038.66667824  .00008811  00000-0  66960-4 0  9990,2 50821  53.2148  41.8134 0002061  28.6494 260.1792 15.73262460  6283,6727.717,91.53,350.969,348.196,0.0
50821.0,STARLINK-3346,PAYLOAD,2022-02-07 22:00:00,15.73269746,0.0001885,53.2149,40.5749,29.2826,236.291,-0.00016819,-0.0002423,0.0,0 STARLINK-3346,1 50821U 22001U   22038.91667824 -.00024230  00000-0 -16819-3 0  9990,2 50821  53.2149  40.5749 0001885  29.2826 236.2910 15.73269746  3705,6727.696,91.529,350.83,348.293,0.0
50821.0,STARLINK-3346,PAYLOAD,2022-02-08 06:00:00,15.73245999,0.0002013,53.2148,38.927,23.2502,331.329,-0.00052028,-0.00073157,0.0,0 STARLINK-3346,1 50821U 22001U   22039.25001157 -.00073157  00000-0 -52028-3 0  9993,2 50821  53.2148  38.9270 0002013  23.2502 331.3290 15.73245999  6371,6727.764,91.531,350.983,348.275,0.0
50821.0,STARLINK-3346,PAYLOAD,2022-02-08 14:00:01,15.73215989,0.0002036,53.2143,37.2773,20.915,62.6103,0.00015354,0.00020997,0.0,0 STARLINK-3346,1 50821U 22001U   22039.58334491  .00020997  00000-0  15354-3 0  9992,2 50821  53.2143  37.2773 0002036  20.9150  62.6103 15.73215989  6434,6727.85,91.532,351.084,348.345,0.0
50821.0,STARLINK-3346,PAYLOAD,2022-02-08 22:00:01,15.73248692,0.0001802,53.2144,35.626,27.9115,144.6321,-0.00014234,-0.00020591,0.0,0 STARLINK-3346,1 50821U 22001U   22039.91668981 -.00020591  00000-0 -14234-3 0  9991,2 50821  53.2144  35.6260 0001802  27.9115 144.6321 15.73248692  3691,6727.755999999999,91.53,350.834,348.409,0.0
50821.0,STARLINK-3346,PAYLOAD,2022-02-09 06:00:00,15.73242133,0.000202,53.2146,33.9785,27.2815,234.1803,-0.00062378,-0.00087426,0.0,0 STARLINK-3346,1 50821U 22001U   22040.25001157 -.00087426  00000-0 -62378-3 0  9998,2 50821  53.2146  33.9785 0002020  27.2815 234.1803 15.73242133  6539,6727.775,91.531,350.999,348.281,0.0
50821.0,STARLINK-3346,PAYLOAD,2022-02-09 14:00:01,15.73192948,0.0002003,53.2148,32.3285,23.3658,327.0328,0.00013998,0.00019064,0.0,0 STARLINK-3346,1 50821U 22001U   22040.58334491  .00019064  00000-0  13998-3 0  9999,2 50821  53.2148  32.3285 0002003  23.3658 327.0328 15.73192948  6589,6727.915,91.534,351.12800000000016,348.43300000000005,0.0
50821.0,STARLINK-3346,PAYLOAD,2022-02-10 06:00:00,15.73214264,0.0002191,53.2149,29.0296,31.0927,137.1798,-0.00054165,-0.0007601,0.0,0 STARLINK-3346,1 50821U 22001U   22041.25001157 -.00076010  00000-0 -54165-3 0  9991,2 50821  53.2149  29.0296 0002191  31.0927 137.1798 15.73214264  6697,6727.855,91.532,351.194,348.245,0.0
50821.0,STARLINK-3346,PAYLOAD,2022-02-10 14:00:01,15.73185011,0.0002063,53.2143,27.3794,29.4797,227.7845,-1.2873e-05,-2.426e-05,0.0,0 STARLINK-3346,1 50821U 22001U   22041.58335648 -.00002426  00000-0 -12873-4 0  9993,2 50821  53.2143  27.3794 0002063  29.4797 227.7845 15.73185011  6741,6727.938,91.534,351.191,348.415,0.0
50821.0,STARLINK-3346,PAYLOAD,2022-02-10 15:57:38,15.73239491,0.0001842,53.2152,26.9751,38.4029,321.7122,6.9046e-05,9.096e-05,0.0,0 STARLINK-3346,1 50821U 22001U   22041.66502622  .00009096  00000-0  69046-4 0  9992,2 50821  53.2152  26.9751 0001842  38.4029 321.7122 15.73239491  6768,6727.783,91.531,350.88699999999994,348.408,0.0
50821.0,STARLINK-3346,PAYLOAD,2022-02-10 22:00:00,15.731779,0.0001863,53.2146,25.7286,35.1118,310.9929,0.00061424,0.00086396,0.0,0 STARLINK-3346,1 50821U 22001U   22041.91667824  .00086396  00000-0  61424-3 0  9995,2 50821  53.2146  25.7286 0001863  35.1118 310.9929 15.73177900  3686,6727.958000000001,91.534,351.077,348.57,0.0
50821.0,STARLINK-3346,PAYLOAD,2022-02-11 05:40:57,15.73235156,0.0002153,53.2152,24.1457,32.8524,327.263,6.8253e-05,8.983e-05,0.0,0 STARLINK-3346,1 50821U 22001U   22042.23677787  .00008983  00000-0  68253-4 0  9994,2 50821  53.2152  24.1457 0002153  32.8524 327.2630 15.73235156  6854,6727.795,91.531,351.108,348.211,0.0
50821.0,STARLINK-3346,PAYLOAD,2022-02-11 14:00:01,15.73305793,0.0001982,53.2148,22.4305,31.4176,132.674,-0.00073994,-0.00103674,0.0,0 STARLINK-3346,1 50821U 22001U   22042.58334491 -.00103674  00000-0 -73994-3 0  9996,2 50821  53.2148  22.4305 0001982  31.4176 132.6740 15.73305793  3705,6727.594,91.527,350.792,348.125,0.0
50821.0,STARLINK-3346,PAYLOAD,2022-02-11 22:00:01,15.73227735,0.0001867,53.2151,20.7793,37.4234,215.7146,0.00023084,0.00031939,0.0,0 STARLINK-3346,1 50821U 22001U   22042.91668981  .00031939  00000-0  23084-3 0  9994,2 50821  53.2151  20.7793 0001867  37.4234 215.7146 15.73227735  3706,6727.816,91.532,350.93699999999984,348.425,0.0
50821.0,STARLINK-3346,PAYLOAD,2022-02-12 04:33:06,15.73287905,0.0002086,53.2153,19.4296,31.3491,328.7653,0.00011102,0.00015047,0.0,0 STARLINK-3346,1 50821U 22001U   22043.18965889  .00015047  00000-0  11102-3 0  9991,2 50821  53.2153  19.4296 0002086  31.3491 328.7653 15.73287905  7003,6727.645,91.528,350.913,348.106,0.0
50821.0,STARLINK-3346,PAYLOAD,2022-02-12 14:00:01,15.73149254,0.000186,53.2145,17.4812,28.4735,42.5097,-0.00040884,-0.00057488,0.0,0 STARLINK-3346,1 50821U 22001U   22043.58334491 -.00057488  00000-0 -40884-3 0  9990,2 50821  53.2145  17.4812 0001860  28.4735  42.5097 15.73149254  3703,6728.04,91.536,351.156,348.653,0.0
50821.0,STARLINK-3346,PAYLOAD,2022-02-12 22:00:00,15.73068664,0.0001732,53.2148,15.8309,36.0009,123.7991,0.0011674,0.00165552,0.0,0 STARLINK-3346,1 50821U 22001U   22043.91667824  .00165552  00000-0  11674-2 0  9990,2 50821  53.2148  15.8309 0001732  36.0009 123.7991 15.73068664  3694,6728.27,91.541,351.3,348.969,0.0
50821.0,STARLINK-3346,PAYLOAD,2022-02-13 04:00:01,15.73194927,0.0001897,53.2147,14.5954,32.0621,104.4045,6.580899999999999e-05,8.623e-05,0.0,0 STARLINK-3346,1 50821U 22001U   22044.16668981  .00008623  00000-0  65809-4 0  9999,2 50821  53.2147  14.5954 0001897  32.0621 104.4045 15.73194927  7156,6727.91,91.533,351.051,348.49800000000016,0.0
50821.0,STARLINK-3346,PAYLOAD,2022-02-13 14:00:01,15.73196294,0.0001769,53.215,12.5327,29.5065,308.0709,-0.00020442,-0.00029207,0.0,0 STARLINK-3346,1 50821U 22001U   22044.58334491 -.00029207  00000-0 -20442-3 0  9997,2 50821  53.2150  12.5327 0001769  29.5065 308.0709 15.73196294  3708,6727.906,91.533,350.961,348.581,0.0
